[
    {
        "CCSDS_OMM_VERS": "3.0",
        "COMMENT": "GENERATED VIA SPACE-TRACK.ORG API",
        "CREATION_DATE": "2025-03-02T18:08:23",
        "ORIGINATOR": "18 SPCS",
        "OBJECT_NAME": "GALILEO 32 (137)",
        "OBJECT_ID": "2024-167A",
        "CENTER_NAME": "EARTH",
        "REF_FRAME": "TEME",
        "TIME_SYSTEM": "UTC",
        "MEAN_ELEMENT_THEORY": "SGP4",
        "EPOCH": "2025-03-02T09:50:51.831168",
        "MEAN_MOTION": "1.70473634",
        "ECCENTRICITY": "0.00023340",
        "INCLINATION": "55.3452",
        "RA_OF_ASC_NODE": "234.2548",
        "ARG_OF_PERICENTER": "176.5739",
        "MEAN_ANOMALY": "30.3834",
        "EPHEMERIS_TYPE": "0",
        "CLASSIFICATION_TYPE": "U",
        "NORAD_CAT_ID": "61182",
        "ELEMENT_SET_NO": "999",
        "REV_AT_EPOCH": "283",
        "BSTAR": "0.00000000000000",
        "MEAN_MOTION_DOT": "0.00000048",
        "MEAN_MOTION_DDOT": "0.0000000000000",
        "SEMIMAJOR_AXIS": "29600.362",
        "PERIOD": "844.705",
        "APOAPSIS": "23229.136",
        "PERIAPSIS": "23215.319",
        "OBJECT_TYPE": "PAYLOAD",
        "RCS_SIZE": "LARGE",
        "COUNTRY_CODE": "ESA",
        "LAUNCH_DATE": "2024-09-17",
        "SITE": "AFETR",
        "DECAY_DATE": null,
        "FILE": "4657142",
        "GP_ID": "282098865",
        "TLE_LINE0": "0 GALILEO 32 (137)",
        "TLE_LINE1": "1 61182U 24167A   25061.41032212  .00000048  00000-0  00000-0 0  9999",
        "TLE_LINE2": "2 61182  55.3452 234.2548 0002334 176.5739  30.3834  1.70473634  2831"
    }
]